{
  "type": "FeatureCollection",
  "features": [
    {
      "type": "Feature",
      "properties": {
        "norad_id": 40236,
        "name": "COSMOS 2251 DEB",
        "group": "cosmos-2251-debris",
        "lat": 3.4132170575769942,
        "lon": 151.32723880511568,
        "alt_km": 804.8386203107584,
        "timestamp": "2025-12-08T13:49:32.192669+00:00",
        "meta_object_name": "COSMOS 2251 DEB",
        "meta_object_id": "1993-036BVR",
        "meta_epoch": "2025-12-07T17:52:23.026080",
        "meta_mean_motion": 13.24639967,
        "meta_eccentricity": 0.05366128,
        "meta_inclination": 73.5349,
        "meta_ra_of_asc_node": 151.6266,
        "meta_arg_of_pericenter": 32.3576,
        "meta_mean_anomaly": 330.9258,
        "meta_ephemeris_type": 0,
        "meta_classification_type": "U",
        "meta_norad_cat_id": 40236,
        "meta_element_set_no": 999,
        "meta_rev_at_epoch": 53558,
        "meta_bstar": 0.0015786255,
        "meta_mean_motion_dot": 1.455e-05,
        "meta_mean_motion_ddot": 0,
        "tle_line1": "1 40236U 93036BVR 25341.74471095  .00001455  00000+0  15786-2 0  9991",
        "tle_line2": "2 40236  73.5349 151.6266 0536612  32.3576 330.9258 13.24639967535580"
      },
      "geometry": {
        "type": "Point",
        "coordinates": [
          151.32723880511568,
          3.4132170575769942
        ]
      }
    },
    {
      "type": "Feature",
      "properties": {
        "norad_id": 40238,
        "name": "COSMOS 2251 DEB",
        "group": "cosmos-2251-debris",
        "lat": 71.07333275919291,
        "lon": -166.86915135132236,
        "alt_km": 918.9561207198603,
        "timestamp": "2025-12-08T13:49:32.192679+00:00",
        "meta_object_name": "COSMOS 2251 DEB",
        "meta_object_id": "1993-036BVT",
        "meta_epoch": "2025-12-04T13:20:38.533056",
        "meta_mean_motion": 13.25091202,
        "meta_eccentricity": 0.0549745,
        "meta_inclination": 73.9885,
        "meta_ra_of_asc_node": 76.1652,
        "meta_arg_of_pericenter": 49.7266,
        "meta_mean_anomaly": 315.0566,
        "meta_ephemeris_type": 0,
        "meta_classification_type": "U",
        "meta_norad_cat_id": 40238,
        "meta_element_set_no": 999,
        "meta_rev_at_epoch": 53928,
        "meta_bstar": 0.0023519,
        "meta_mean_motion_dot": 2.29e-05,
        "meta_mean_motion_ddot": 0,
        "tle_line1": "1 40238U 93036BVT 25338.55600154  .00002290  00000+0  23519-2 0  9999",
        "tle_line2": "2 40238  73.9885  76.1652 0549745  49.7266 315.0566 13.25091202539282"
      },
      "geometry": {
        "type": "Point",
        "coordinates": [
          -166.86915135132236,
          71.07333275919291
        ]
      }
    },
    {
      "type": "Feature",
      "properties": {
        "norad_id": 40239,
        "name": "COSMOS 2251 DEB",
        "group": "cosmos-2251-debris",
        "lat": 12.394864136023934,
        "lon": -72.5828372799599,
        "alt_km": 632.729915814054,
        "timestamp": "2025-12-08T13:49:32.192689+00:00",
        "meta_object_name": "COSMOS 2251 DEB",
        "meta_object_id": "1993-036BVU",
        "meta_epoch": "2025-12-07T03:20:57.988320",
        "meta_mean_motion": 14.61953613,
        "meta_eccentricity": 0.00846067,
        "meta_inclination": 74.0321,
        "meta_ra_of_asc_node": 286.5589,
        "meta_arg_of_pericenter": 39.3836,
        "meta_mean_anomaly": 336.7087,
        "meta_ephemeris_type": 0,
        "meta_classification_type": "U",
        "meta_norad_cat_id": 40239,
        "meta_element_set_no": 999,
        "meta_rev_at_epoch": 59529,
        "meta_bstar": 0.00078994499,
        "meta_mean_motion_dot": 4.135e-05,
        "meta_mean_motion_ddot": 0,
        "tle_line1": "1 40239U 93036BVU 25341.13956005  .00004135  00000+0  78994-3 0  9995",
        "tle_line2": "2 40239  74.0321 286.5589 0084606  39.3836 336.7087 14.61953613595299"
      },
      "geometry": {
        "type": "Point",
        "coordinates": [
          -72.5828372799599,
          12.394864136023934
        ]
      }
    },
    {
      "type": "Feature",
      "properties": {
        "norad_id": 40792,
        "name": "COSMOS 2251 DEB",
        "group": "cosmos-2251-debris",
        "lat": 73.55208574211595,
        "lon": 159.8236887062562,
        "alt_km": 657.4439193410681,
        "timestamp": "2025-12-08T13:49:32.192699+00:00",
        "meta_object_name": "COSMOS 2251 DEB",
        "meta_object_id": "1993-036BVV",
        "meta_epoch": "2025-12-05T11:50:21.887232",
        "meta_mean_motion": 14.67439318,
        "meta_eccentricity": 0.00160421,
        "meta_inclination": 74.0471,
        "meta_ra_of_asc_node": 61.4454,
        "meta_arg_of_pericenter": 169.1761,
        "meta_mean_anomaly": 205.7811,
        "meta_ephemeris_type": 0,
        "meta_classification_type": "U",
        "meta_norad_cat_id": 40792,
        "meta_element_set_no": 999,
        "meta_rev_at_epoch": 63078,
        "meta_bstar": 0.0022254154,
        "meta_mean_motion_dot": 0.00012612,
        "meta_mean_motion_ddot": 0,
        "tle_line1": "1 40792U 93036BVV 25339.49330888  .00012612  00000+0  22254-2 0  9996",
        "tle_line2": "2 40792  74.0471  61.4454 0016042 169.1761 205.7811 14.67439318630789"
      },
      "geometry": {
        "type": "Point",
        "coordinates": [
          159.8236887062562,
          73.55208574211595
        ]
      }
    },
    {
      "type": "Feature",
      "properties": {
        "norad_id": 40793,
        "name": "COSMOS 2251 DEB",
        "group": "cosmos-2251-debris",
        "lat": -67.25082172199802,
        "lon": 35.67993720764141,
        "alt_km": 839.6807402008417,
        "timestamp": "2025-12-08T13:49:32.192710+00:00",
        "meta_object_name": "COSMOS 2251 DEB",
        "meta_object_id": "1993-036BVW",
        "meta_epoch": "2025-11-17T22:59:08.433600",
        "meta_mean_motion": 14.0559149,
        "meta_eccentricity": 0.02150611,
        "meta_inclination": 73.9793,
        "meta_ra_of_asc_node": 208.5839,
        "meta_arg_of_pericenter": 10.058,
        "meta_mean_anomaly": 350.4754,
        "meta_ephemeris_type": 0,
        "meta_classification_type": "U",
        "meta_norad_cat_id": 40793,
        "meta_element_set_no": 999,
        "meta_rev_at_epoch": 67897,
        "meta_bstar": 0.0015211732,
        "meta_mean_motion_dot": 3.024e-05,
        "meta_mean_motion_ddot": 0,
        "tle_line1": "1 40793U 93036BVW 25321.95773650  .00003024  00000+0  15212-2 0  9990",
        "tle_line2": "2 40793  73.9793 208.5839 0215061  10.0580 350.4754 14.05591490678970"
      },
      "geometry": {
        "type": "Point",
        "coordinates": [
          35.67993720764141,
          -67.25082172199802
        ]
      }
    },
    {
      "type": "Feature",
      "properties": {
        "norad_id": 40794,
        "name": "COSMOS 2251 DEB",
        "group": "cosmos-2251-debris",
        "lat": 64.08775338159653,
        "lon": -83.62297074706403,
        "alt_km": 590.0042085921341,
        "timestamp": "2025-12-08T13:49:32.192720+00:00",
        "meta_object_name": "COSMOS 2251 DEB",
        "meta_object_id": "1993-036BVX",
        "meta_epoch": "2025-11-30T04:39:36.279360",
        "meta_mean_motion": 14.91253423,
        "meta_eccentricity": 0.00103638,
        "meta_inclination": 73.9758,
        "meta_ra_of_asc_node": 149.5129,
        "meta_arg_of_pericenter": 264.0956,
        "meta_mean_anomaly": 215.1976,
        "meta_ephemeris_type": 0,
        "meta_classification_type": "U",
        "meta_norad_cat_id": 40794,
        "meta_element_set_no": 999,
        "meta_rev_at_epoch": 61737,
        "meta_bstar": 0.0047311798,
        "meta_mean_motion_dot": 0.00047418,
        "meta_mean_motion_ddot": 0,
        "tle_line1": "1 40794U 93036BVX 25334.19416990  .00047418  00000+0  47312-2 0  9993",
        "tle_line2": "2 40794  73.9758 149.5129 0010363 264.0956 215.1976 14.91253423617370"
      },
      "geometry": {
        "type": "Point",
        "coordinates": [
          -83.62297074706403,
          64.08775338159653
        ]
      }
    },
    {
      "type": "Feature",
      "properties": {
        "norad_id": 40796,
        "name": "COSMOS 2251 DEB",
        "group": "cosmos-2251-debris",
        "lat": -37.1998566788919,
        "lon": 137.85484821197002,
        "alt_km": 597.5004994764631,
        "timestamp": "2025-12-08T13:49:32.192730+00:00",
        "meta_object_name": "COSMOS 2251 DEB",
        "meta_object_id": "1993-036BVZ",
        "meta_epoch": "2025-12-06T18:18:30.565728",
        "meta_mean_motion": 14.81574152,
        "meta_eccentricity": 0.00560116,
        "meta_inclination": 74.0115,
        "meta_ra_of_asc_node": 154.0093,
        "meta_arg_of_pericenter": 291.6705,
        "meta_mean_anomaly": 81.9315,
        "meta_ephemeris_type": 0,
        "meta_classification_type": "U",
        "meta_norad_cat_id": 40796,
        "meta_element_set_no": 999,
        "meta_rev_at_epoch": 76070,
        "meta_bstar": 0.0014785564,
        "meta_mean_motion_dot": 0.00011917,
        "meta_mean_motion_ddot": 0,
        "tle_line1": "1 40796U 93036BVZ 25340.76285377  .00011917  00000+0  14786-2 0  9992",
        "tle_line2": "2 40796  74.0115 154.0093 0056011 291.6705  81.9315 14.81574152760706"
      },
      "geometry": {
        "type": "Point",
        "coordinates": [
          137.85484821197002,
          -37.1998566788919
        ]
      }
    }
  ]
}